ONEWEB-0435             
1 51632U 22012L   26118.25779297  .00000538  00000+0  15045-2 0  9992
2 51632  87.8847  46.2136 0002056  74.4042 285.7313 13.10369839202777
ONEWEB-0436             
1 51633U 22012M   26118.24620477  .00000110  00000+0  24921-3 0  9997
2 51633  87.9190  15.7659 0001931  74.6463 285.4881 13.17651468207109
ONEWEB-0438             
1 51634U 22012N   26118.24119919  .00000587  00000+0  16463-2 0  9991
2 51634  87.8852  46.2192 0001835  83.9894 276.1443 13.10374445202802
ONEWEB-0439             
1 51635U 22012P   26118.24452354  .00000635  00000+0  17825-2 0  9992
2 51635  87.8845  46.2067 0001992  81.2944 278.8409 13.10374210202785
ONEWEB-0442             
1 51636U 22012Q   26118.23862368  .00000015  00000+0  54554-5 0  9997
2 51636  87.9184  15.8032 0001635  99.4159 260.7157 13.17648779207090
ONEWEB-0443             
1 51637U 22012R   26118.25802999  .00000063  00000+0  12874-3 0  9994
2 51637  87.9182  15.8013 0002129  85.4563 274.6811 13.17648569207145
ONEWEB-0444             
1 51638U 22012S   26118.31092640  .00000321  00000+0  88358-3 0  9993
2 51638  87.8852  46.1921 0002055  81.6637 278.4723 13.10376072202804
ONEWEB-0445             
1 51639U 22012T   26118.25614380  .00000610  00000+0  17117-2 0  9993
2 51639  87.8855  46.1867 0001693  74.2959 285.8355 13.10372587202809
ONEWEB-0446             
1 51640U 22012U   26118.30925237  .00000224  00000+0  60469-3 0  9997
2 51640  87.8854  46.2088 0001738  76.5483 283.5838 13.10376313202793
ONEWEB-0448             
1 51641U 22012V   26118.23786002  .00000440  00000+0  12227-2 0  9993
2 51641  87.8850  46.2203 0001954  79.1183 281.0164 13.10379735202757
ONEWEB-0449             
1 51642U 22012W   26118.24286149  .00000346  00000+0  95566-3 0  9995
2 51642  87.8861  46.2028 0001833  94.9435 265.1902 13.10372058202761
ONEWEB-0451             
1 51643U 22012X   26118.24284575  .00000110  00000+0  24932-3 0  9995
2 51643  87.9193  15.7627 0001803  87.6207 272.5131 13.17650304207086
ONEWEB-0452             
1 51644U 22012Y   26118.24114205  .00000058  00000+0  11591-3 0  9996
2 51644  87.9182  15.8047 0002004  87.6574 272.4787 13.17650337207096
ONEWEB-0456             
1 51646U 22012AA  26118.17646532  .00000638  00000+0  17914-2 0  9991
2 51646  87.8862  46.1991 0002030  76.5375 283.5979 13.10371771202795
ONEWEB-0457             
1 51647U 22012AB  26118.30593043  .00000075  00000+0  17924-3 0  9992
2 51647  87.8852  46.1971 0001473  82.7478 277.3817 13.10375992202810
ONEWEB-0458             
1 51648U 22012AC  26118.25116526  .00000722  00000+0  20332-2 0  9999
2 51648  87.8856  46.1917 0001974  83.2055 276.9296 13.10371991202763
ONEWEB-0461             
1 51649U 22012AD  26118.26309216  .00000041  00000+0  72569-4 0  9996
2 51649  87.9193  15.7732 0001687  80.0546 280.0776 13.17648419207311
