[{"OBJECT_NAME":"ONEWEB-0435","OBJECT_ID":"2022-012L","EPOCH":"2026-04-28T06:11:13.312608","MEAN_MOTION":13.10369839,"ECCENTRICITY":0.0002056,"INCLINATION":87.8847,"RA_OF_ASC_NODE":46.2136,"ARG_OF_PERICENTER":74.4042,"MEAN_ANOMALY":285.7313,"EPHEMERIS_TYPE":0,"CLASSIFICATION_TYPE":"U","NORAD_CAT_ID":51632,"ELEMENT_SET_NO":999,"REV_AT_EPOCH":20277,"BSTAR":0.0015045,"MEAN_MOTION_DOT":5.38e-06,"MEAN_MOTION_DDOT":0.0},{"OBJECT_NAME":"ONEWEB-0436","OBJECT_ID":"2022-012M","EPOCH":"2026-04-28T05:54:32.092128","MEAN_MOTION":13.17651468,"ECCENTRICITY":0.0001931,"INCLINATION":87.919,"RA_OF_ASC_NODE":15.7659,"ARG_OF_PERICENTER":74.6463,"MEAN_ANOMALY":285.4881,"EPHEMERIS_TYPE":0,"CLASSIFICATION_TYPE":"U","NORAD_CAT_ID":51633,"ELEMENT_SET_NO":999,"REV_AT_EPOCH":20710,"BSTAR":0.00024921,"MEAN_MOTION_DOT":1.1e-06,"MEAN_MOTION_DDOT":0.0},{"OBJECT_NAME":"ONEWEB-0438","OBJECT_ID":"2022-012N","EPOCH":"2026-04-28T05:47:19.610016","MEAN_MOTION":13.10374445,"ECCENTRICITY":0.0001835,"INCLINATION":87.8852,"RA_OF_ASC_NODE":46.2192,"ARG_OF_PERICENTER":83.9894,"MEAN_ANOMALY":276.1443,"EPHEMERIS_TYPE":0,"CLASSIFICATION_TYPE":"U","NORAD_CAT_ID":51634,"ELEMENT_SET_NO":999,"REV_AT_EPOCH":20280,"BSTAR":0.0016463,"MEAN_MOTION_DOT":5.87e-06,"MEAN_MOTION_DDOT":0.0},{"OBJECT_NAME":"ONEWEB-0439","OBJECT_ID":"2022-012P","EPOCH":"2026-04-28T05:52:06.833856","MEAN_MOTION":13.1037421,"ECCENTRICITY":0.0001992,"INCLINATION":87.8845,"RA_OF_ASC_NODE":46.2067,"ARG_OF_PERICENTER":81.2944,"MEAN_ANOMALY":278.8409,"EPHEMERIS_TYPE":0,"CLASSIFICATION_TYPE":"U","NORAD_CAT_ID":51635,"ELEMENT_SET_NO":999,"REV_AT_EPOCH":20278,"BSTAR":0.0017825,"MEAN_MOTION_DOT":6.35e-06,"MEAN_MOTION_DDOT":0.0},{"OBJECT_NAME":"ONEWEB-0442","OBJECT_ID":"2022-012Q","EPOCH":"2026-04-28T05:43:37.085952","MEAN_MOTION":13.17648779,"ECCENTRICITY":0.0001635,"INCLINATION":87.9184,"RA_OF_ASC_NODE":15.8032,"ARG_OF_PERICENTER":99.4159,"MEAN_ANOMALY":260.7157,"EPHEMERIS_TYPE":0,"CLASSIFICATION_TYPE":"U","NORAD_CAT_ID":51636,"ELEMENT_SET_NO":999,"REV_AT_EPOCH":20709,"BSTAR":5.4554e-06,"MEAN_MOTION_DOT":1.5e-07,"MEAN_MOTION_DDOT":0.0},{"OBJECT_NAME":"ONEWEB-0443","OBJECT_ID":"2022-012R","EPOCH":"2026-04-28T06:11:33.791136","MEAN_MOTION":13.17648569,"ECCENTRICITY":0.0002129,"INCLINATION":87.9182,"RA_OF_ASC_NODE":15.8013,"ARG_OF_PERICENTER":85.4563,"MEAN_ANOMALY":274.6811,"EPHEMERIS_TYPE":0,"CLASSIFICATION_TYPE":"U","NORAD_CAT_ID":51637,"ELEMENT_SET_NO":999,"REV_AT_EPOCH":20714,"BSTAR":0.00012874,"MEAN_MOTION_DOT":6.3e-07,"MEAN_MOTION_DDOT":0.0},{"OBJECT_NAME":"ONEWEB-0444","OBJECT_ID":"2022-012S","EPOCH":"2026-04-28T07:27:44.040960","MEAN_MOTION":13.10376072,"ECCENTRICITY":0.0002055,"INCLINATION":87.8852,"RA_OF_ASC_NODE":46.1921,"ARG_OF_PERICENTER":81.6637,"MEAN_ANOMALY":278.4723,"EPHEMERIS_TYPE":0,"CLASSIFICATION_TYPE":"U","NORAD_CAT_ID":51638,"ELEMENT_SET_NO":999,"REV_AT_EPOCH":20280,"BSTAR":0.00088358,"MEAN_MOTION_DOT":3.21e-06,"MEAN_MOTION_DDOT":0.0},{"OBJECT_NAME":"ONEWEB-0445","OBJECT_ID":"2022-012T","EPOCH":"2026-04-28T06:08:50.824320","MEAN_MOTION":13.10372587,"ECCENTRICITY":0.0001693,"INCLINATION":87.8855,"RA_OF_ASC_NODE":46.1867,"ARG_OF_PERICENTER":74.2959,"MEAN_ANOMALY":285.8355,"EPHEMERIS_TYPE":0,"CLASSIFICATION_TYPE":"U","NORAD_CAT_ID":51639,"ELEMENT_SET_NO":999,"REV_AT_EPOCH":20280,"BSTAR":0.0017117,"MEAN_MOTION_DOT":6.1e-06,"MEAN_MOTION_DDOT":0.0},{"OBJECT_NAME":"ONEWEB-0446","OBJECT_ID":"2022-012U","EPOCH":"2026-04-28T07:25:19.404768","MEAN_MOTION":13.10376313,"ECCENTRICITY":0.0001738,"INCLINATION":87.8854,"RA_OF_ASC_NODE":46.2088,"ARG_OF_PERICENTER":76.5483,"MEAN_ANOMALY":283.5838,"EPHEMERIS_TYPE":0,"CLASSIFICATION_TYPE":"U","NORAD_CAT_ID":51640,"ELEMENT_SET_NO":999,"REV_AT_EPOCH":20279,"BSTAR":0.00060469,"MEAN_MOTION_DOT":2.24e-06,"MEAN_MOTION_DDOT":0.0},{"OBJECT_NAME":"ONEWEB-0448","OBJECT_ID":"2022-012V","EPOCH":"2026-04-28T05:42:31.105728","MEAN_MOTION":13.10379735,"ECCENTRICITY":0.0001954,"INCLINATION":87.885,"RA_OF_ASC_NODE":46.2203,"ARG_OF_PERICENTER":79.1183,"MEAN_ANOMALY":281.0164,"EPHEMERIS_TYPE":0,"CLASSIFICATION_TYPE":"U","NORAD_CAT_ID":51641,"ELEMENT_SET_NO":999,"REV_AT_EPOCH":20275,"BSTAR":0.0012227,"MEAN_MOTION_DOT":4.4e-06,"MEAN_MOTION_DDOT":0.0},{"OBJECT_NAME":"ONEWEB-0449","OBJECT_ID":"2022-012W","EPOCH":"2026-04-28T05:49:43.232736","MEAN_MOTION":13.10372058,"ECCENTRICITY":0.0001833,"INCLINATION":87.8861,"RA_OF_ASC_NODE":46.2028,"ARG_OF_PERICENTER":94.9435,"MEAN_ANOMALY":265.1902,"EPHEMERIS_TYPE":0,"CLASSIFICATION_TYPE":"U","NORAD_CAT_ID":51642,"ELEMENT_SET_NO":999,"REV_AT_EPOCH":20276,"BSTAR":0.00095566,"MEAN_MOTION_DOT":3.46e-06,"MEAN_MOTION_DDOT":0.0},{"OBJECT_NAME":"ONEWEB-0451","OBJECT_ID":"2022-012X","EPOCH":"2026-04-28T05:49:41.872800","MEAN_MOTION":13.17650304,"ECCENTRICITY":0.0001803,"INCLINATION":87.9193,"RA_OF_ASC_NODE":15.7627,"ARG_OF_PERICENTER":87.6207,"MEAN_ANOMALY":272.5131,"EPHEMERIS_TYPE":0,"CLASSIFICATION_TYPE":"U","NORAD_CAT_ID":51643,"ELEMENT_SET_NO":999,"REV_AT_EPOCH":20708,"BSTAR":0.00024932000000000003,"MEAN_MOTION_DOT":1.1e-06,"MEAN_MOTION_DDOT":0.0},{"OBJECT_NAME":"ONEWEB-0452","OBJECT_ID":"2022-012Y","EPOCH":"2026-04-28T05:47:14.673120","MEAN_MOTION":13.17650337,"ECCENTRICITY":0.0002004,"INCLINATION":87.9182,"RA_OF_ASC_NODE":15.8047,"ARG_OF_PERICENTER":87.6574,"MEAN_ANOMALY":272.4787,"EPHEMERIS_TYPE":0,"CLASSIFICATION_TYPE":"U","NORAD_CAT_ID":51644,"ELEMENT_SET_NO":999,"REV_AT_EPOCH":20709,"BSTAR":0.00011591,"MEAN_MOTION_DOT":5.8e-07,"MEAN_MOTION_DDOT":0.0},{"OBJECT_NAME":"ONEWEB-0456","OBJECT_ID":"2022-012AA","EPOCH":"2026-04-28T04:14:06.603648","MEAN_MOTION":13.10371771,"ECCENTRICITY":0.000203,"INCLINATION":87.8862,"RA_OF_ASC_NODE":46.1991,"ARG_OF_PERICENTER":76.5375,"MEAN_ANOMALY":283.5979,"EPHEMERIS_TYPE":0,"CLASSIFICATION_TYPE":"U","NORAD_CAT_ID":51646,"ELEMENT_SET_NO":999,"REV_AT_EPOCH":20279,"BSTAR":0.0017914,"MEAN_MOTION_DOT":6.38e-06,"MEAN_MOTION_DDOT":0.0},{"OBJECT_NAME":"ONEWEB-0457","OBJECT_ID":"2022-012AB","EPOCH":"2026-04-28T07:20:32.389152","MEAN_MOTION":13.10375992,"ECCENTRICITY":0.0001473,"INCLINATION":87.8852,"RA_OF_ASC_NODE":46.1971,"ARG_OF_PERICENTER":82.7478,"MEAN_ANOMALY":277.3817,"EPHEMERIS_TYPE":0,"CLASSIFICATION_TYPE":"U","NORAD_CAT_ID":51647,"ELEMENT_SET_NO":999,"REV_AT_EPOCH":20281,"BSTAR":0.00017924000000000003,"MEAN_MOTION_DOT":7.5e-07,"MEAN_MOTION_DDOT":0.0},{"OBJECT_NAME":"ONEWEB-0458","OBJECT_ID":"2022-012AC","EPOCH":"2026-04-28T06:01:40.678464","MEAN_MOTION":13.10371991,"ECCENTRICITY":0.0001974,"INCLINATION":87.8856,"RA_OF_ASC_NODE":46.1917,"ARG_OF_PERICENTER":83.2055,"MEAN_ANOMALY":276.9296,"EPHEMERIS_TYPE":0,"CLASSIFICATION_TYPE":"U","NORAD_CAT_ID":51648,"ELEMENT_SET_NO":999,"REV_AT_EPOCH":20276,"BSTAR":0.0020332,"MEAN_MOTION_DOT":7.22e-06,"MEAN_MOTION_DDOT":0.0},{"OBJECT_NAME":"ONEWEB-0461","OBJECT_ID":"2022-012AD","EPOCH":"2026-04-28T06:18:51.162624","MEAN_MOTION":13.17648419,"ECCENTRICITY":0.0001687,"INCLINATION":87.9193,"RA_OF_ASC_NODE":15.7732,"ARG_OF_PERICENTER":80.0546,"MEAN_ANOMALY":280.0776,"EPHEMERIS_TYPE":0,"CLASSIFICATION_TYPE":"U","NORAD_CAT_ID":51649,"ELEMENT_SET_NO":999,"REV_AT_EPOCH":20731,"BSTAR":7.2569e-05,"MEAN_MOTION_DOT":4.1e-07,"MEAN_MOTION_DDOT":0.0}]